SatCatId,ObjectName,LaunchYear,OrbitalPeriod,LaunchMass,StatusCode,Inclination,Status,UcsData,OrbitClassEstimated,LaunchSiteCountry,Owner,UseType,Purpose,LaunchVehicleClass,TLE1,TLE2,MeanMotion,Eccentricity,OrbitClass
17328,MOLNIYA 3-31,1987,717.7,-1.0,UNK,63.63,Inactive,0,MEO,Russia,Russia/USSR,Unknown,Unknown,Unknown,1 17328U 87008A   23066.10295351 -.00000353  00000+0  00000+0 0  9997,2 17328  63.6254  96.0764 7175604 253.1011  22.8249  2.00641904261130,2.00641904,0.7175604,MEO
17359,COSMOS 1816,1987,104.76,-1.0,UNK,82.93,Inactive,0,LEO,Russia,Russia/USSR,Unknown,Unknown,Unknown,1 17359U 87009A   23067.07775596  .00000145  00000+0  13768-3 0  9990,2 17359  82.9276 192.9211 0031226 305.8723 228.3180 13.74514281810894,13.74514281,0.0031226,LEO
17369,COSMOS 1818,1987,100.59,-1.0,UNK,65.01,Inactive,0,LEO,Kazakhstan,Russia/USSR,Unknown,Unknown,Unknown,1 17369U 87011A   23067.07286379  .00000128  00000+0  85645-4 0  9995,2 17369  65.0134   0.9731 0012705 275.1675  84.7959 14.31537374937767,14.31537374,0.0012705,LEO
17506,USA 21,1987,717.89,-1.0,UNK,62.57,Inactive,0,MEO,USA,USA,Unknown,Unknown,Unknown,1 17506U 87015A   23063.28743168  .00000854  00000+0 -25789-2 0  9993,2 17506  62.5738  84.4382 7325272 267.5379  15.1703  2.00587117 26633,2.00587117,0.7325272,MEO
17525,COSMOS 1821,1987,104.82,-1.0,UNK,82.92,Inactive,0,LEO,Russia,Russia/USSR,Unknown,Unknown,Unknown,1 17525U 87017A   23067.27913497  .00000117  00000+0  10867-3 0  9996,2 17525  82.9168 336.6422 0037759  39.4638  79.1629 13.73774981791131,13.73774981,0.0037759,LEO
17527,MOMO-1 (MOS-1),1987,102.66,-1.0,-,99.01,Inactive,0,LEO,Japan,Japan,Unknown,Unknown,Unknown,1 17527U 87018A   23067.19936309 -.00000020  00000+0  15495-4 0  9994,2 17527  99.0142 123.4743 0007367 283.2280 145.9230 14.02703997842438,14.02703997,0.0007367,LEO
17535,COSMOS 1823,1987,116.0,-1.0,UNK,73.6,Inactive,0,LEO,Russia,Russia/USSR,Unknown,Unknown,Unknown,1 17535U 87020A   23066.40054764 -.00000019  00000+0 -10045-4 0  9990,2 17535  73.6013 209.9682 0028259 163.0363 257.3889 12.41341472633224,12.41341472,0.0028259,LEO
17561,GOES 7,1987,1441.57,-1.0,-,14.01,Inactive,0,GSO,USA,USA,Unknown,Unknown,Unknown,1 17561U 87022A   23066.32466767 -.00000045  00000+0  00000+0 0  9995,2 17561  14.0148 346.4283 0005316  58.2261 130.9780  0.99891040114991,0.9989104,0.0005316,GSO
17566,COSMOS 1825,1987,94.33,-1.0,UNK,82.51,Inactive,0,LEO,Russia,Russia/USSR,Unknown,Unknown,Unknown,1 17566U 87024A   23067.34234963  .00021017  00000+0  80126-3 0  9998,2 17566  82.5062  12.0764 0005616 103.6095 256.5769 15.26559263971452,15.26559263,0.0005616,LEO
17582,COSMOS 1827,1987,113.84,-1.0,UNK,82.57,Inactive,0,LEO,Russia,Russia/USSR,Unknown,Unknown,Unknown,1 17582U 87026A   23067.43941443  .00000036  00000+0  13572-3 0  9995,2 17582  82.5660 240.3837 0011847   3.3591 356.7579 12.64959755661571,12.64959755,0.0011847,LEO
17583,COSMOS 1828,1987,113.72,-1.0,UNK,82.57,Inactive,0,LEO,Russia,Russia/USSR,Unknown,Unknown,Unknown,1 17583U 87026B   23066.42864042  .00000028  00000+0  93610-4 0  9996,2 17583  82.5663 217.0103 0018013 283.1368 131.2522 12.66224957662952,12.66224957,0.0018013,LEO
17584,COSMOS 1829,1987,114.04,-1.0,UNK,82.57,Inactive,0,LEO,Russia,Russia/USSR,Unknown,Unknown,Unknown,1 17584U 87026C   23066.83552287  .00000049  00000+0  21523-3 0  9993,2 17584  82.5667 277.9125 0001386  86.5527 273.5723 12.62669213658292,12.62669213,0.0001386,LEO
17585,COSMOS 1830,1987,113.96,-1.0,UNK,82.56,Inactive,0,LEO,Russia,Russia/USSR,Unknown,Unknown,Unknown,1 17585U 87026D   23066.93806485  .00000036  00000+0  14054-3 0  9994,2 17585  82.5565 253.5042 0005595  71.2627 102.9273 12.63563673659432,12.63563673,0.0005595,LEO
17586,COSMOS 1831,1987,113.79,-1.0,UNK,82.56,Inactive,0,LEO,Russia,Russia/USSR,Unknown,Unknown,Unknown,1 17586U 87026E   23066.93105931  .00000049  00000+0  20359-3 0  9992,2 17586  82.5589 221.1362 0014534 334.2590 197.6534 12.65494317661994,12.65494317,0.0014534,LEO
17587,COSMOS 1832,1987,113.9,-1.0,UNK,82.56,Inactive,0,LEO,Russia,Russia/USSR,Unknown,Unknown,Unknown,1 17587U 87026F   23066.93098788  .00000035  00000+0  13154-3 0  9994,2 17587  82.5636 249.4799 0009101  30.1135 139.5111 12.64290193660402,12.64290193,0.0009101,LEO
17589,COSMOS 1833,1987,101.91,-1.0,UNK,70.92,Inactive,0,LEO,Kazakhstan,Russia/USSR,Unknown,Unknown,Unknown,1 17589U 87027A   23066.86158288  .00000096  00000+0  76785-4 0  9998,2 17589  70.9211 113.3827 0024686  43.9096 316.3981 14.12949135855237,14.12949135,0.0024686,LEO
17611,RADUGA 20,1987,1500.61,-1.0,-,14.96,Inactive,0,HEO,Kazakhstan,Russia/USSR,Unknown,Unknown,Unknown,1 17611U 87028A   23066.48848245 -.00000066  00000+0  00000+0 0  9992,2 17611  14.9550 337.0584 0030886 141.5599 286.4973  0.95960677126828,0.95960677,0.0030886,HEO
17706,AGILA 1 (PALAPA B2P),1987,1441.35,-1.0,UNK,14.84,Inactive,0,GSO,USA,Philippines,Unknown,Unknown,Unknown,1 17706U 87029A   23066.83112745 -.00000273  00000+0  00000+0 0  9996,2 17706  14.8429 357.3540 0005443  57.3836 153.3522  0.99906020 30566,0.9990602,0.0005443,GSO
17911,COSMOS 1842,1987,94.95,-1.0,UNK,82.52,Inactive,0,LEO,Russia,Russia/USSR,Unknown,Unknown,Unknown,1 17911U 87038A   23067.11737897  .00011674  00000+0  59459-3 0  9999,2 17911  82.5215 305.7538 0008545 232.4055 127.6403 15.16649496957722,15.16649496,0.0008545,LEO
17969,GORIZONT 14,1987,1474.52,-1.0,-,12.77,Inactive,0,GSO,Kazakhstan,Russia/USSR,Unknown,Unknown,Unknown,1 17969U 87040A   23066.37896433 -.00000088  00000+0  00000+0 0  9996,2 17969  12.7674 328.1505 0030608 177.7426 190.0046  0.97658737108164,0.97658737,0.0030608,GSO
17973,COSMOS 1844,1987,101.82,-1.0,UNK,70.9,Inactive,0,LEO,Kazakhstan,Russia/USSR,Unknown,Unknown,Unknown,1 17973U 87041A   23067.40622708 -.00000085  00000+0 -18957-4 0  9992,2 17973  70.8996 187.9613 0033081 232.6975 127.1130 14.14200452848639,14.14200452,0.0033081,LEO
18009,USA 23,1987,106.37,-1.0,UNK,63.3,Inactive,0,LEO,USA,USA,Unknown,Unknown,Unknown,1 18009U 87043E   23067.28847954  .00017659  00000+0  11500-2 0  9991,2 18009  63.2982  31.2095 0931984  82.0209 288.5401 13.53702820181374,13.5370282,0.0931984,LEO
18010,USA 24,1987,106.37,-1.0,UNK,63.3,Inactive,0,LEO,USA,USA,Unknown,Unknown,Unknown,1 18010U 87043F   23067.28088231  .00016960  00000+0  10972-2 0  9994,2 18010  63.2983  30.5950 0932688  81.8942 288.6697 13.53730266181386,13.53730266,0.0932688,LEO
18025,USA 25,1987,106.35,-1.0,UNK,63.29,Inactive,0,LEO,USA,USA,Unknown,Unknown,Unknown,1 18025U 87043H   23067.32785848  .00018122  00000+0  11171-2 0  9997,2 18025  63.2943  36.1778 0936898  79.4368 291.0688 13.53993355187564,13.53993355,0.0936898,LEO
18095,COSMOS 1850,1987,100.46,-1.0,UNK,74.04,Inactive,0,LEO,Russia,Russia/USSR,Unknown,Unknown,Unknown,1 18095U 87049A   23067.05773870  .00000403  00000+0  15538-3 0  9997,2 18095  74.0368  86.2011 0014299  28.3565 331.8361 14.33391567868600,14.33391567,0.0014299,LEO
18103,COSMOS 1851,1987,718.75,-1.0,UNK,70.69,Inactive,0,MEO,Russia,Russia/USSR,Unknown,Unknown,Unknown,1 18103U 87050A   23064.42463701  .00000117  00000+0  00000+0 0  9992,2 18103  70.6930 227.9699 4256927  75.4713 339.9485  2.00346469261730,2.00346469,0.4256927,MEO
18113,COSMOS 1852,1987,115.68,-1.0,UNK,74.0,Inactive,0,LEO,Russia,Russia/USSR,Unknown,Unknown,Unknown,1 18113U 87051A   23066.81783181  .00000003  00000+0  13452-3 0  9999,2 18113  74.0005 262.4006 0017332 284.0179  75.8941 12.44858487623421,12.44858487,0.0017332,LEO
18114,COSMOS 1853,1987,115.48,-1.0,UNK,74.0,Inactive,0,LEO,Russia,Russia/USSR,Unknown,Unknown,Unknown,1 18114U 87051B   23067.12168824 -.00000021  00000+0 -32691-4 0  9995,2 18114  74.0043 193.0854 0006270 176.4883 356.4610 12.46990616626471,12.46990616,0.000627,LEO
18115,COSMOS 1854,1987,115.31,-1.0,UNK,74.0,Inactive,0,LEO,Russia,Russia/USSR,Unknown,Unknown,Unknown,1 18115U 87051C   23067.63022142  .00000020  00000+0  23845-3 0  9991,2 18115  74.0028 133.9372 0013580  53.7102  98.7232 12.48798656628892,12.48798656,0.001358,LEO
18116,COSMOS 1855,1987,115.14,-1.0,UNK,74.0,Inactive,0,LEO,Russia,Russia/USSR,Unknown,Unknown,Unknown,1 18116U 87051D   23066.75792184  .00000003  00000+0  12317-3 0  9997,2 18116  74.0015  73.7145 0020153 310.6888 223.0584 12.50703338631093,12.50703338,0.0020153,LEO
18117,COSMOS 1856,1987,114.97,-1.0,UNK,74.01,Inactive,0,LEO,Russia,Russia/USSR,Unknown,Unknown,Unknown,1 18117U 87051E   23067.10197438 -.00000019  00000+0 -16041-4 0  9997,2 18117  74.0073  14.5190 0030334 245.3408 125.6405 12.52501868633654,12.52501868,0.0030334,LEO
18118,COSMOS 1857,1987,114.81,-1.0,UNK,74.01,Inactive,0,LEO,Russia,Russia/USSR,Unknown,Unknown,Unknown,1 18118U 87051F   23066.16042801  .00000011  00000+0  16640-3 0  9990,2 18118  74.0061 319.2530 0038619 178.9968 181.1170 12.54242336635563,12.54242336,0.0038619,LEO
18119,COSMOS 1858,1987,114.65,-1.0,UNK,74.0,Inactive,0,LEO,Russia,Russia/USSR,Unknown,Unknown,Unknown,1 18119U 87051G   23066.79980652 -.00000001  00000+0  93160-4 0  9998,2 18119  74.0004 260.5315 0048081 113.8069 258.2934 12.56009295637949,12.56009295,0.0048081,LEO
18120,COSMOS 1859,1987,114.47,-1.0,UNK,74.0,Inactive,0,LEO,Russia,Russia/USSR,Unknown,Unknown,Unknown,1 18120U 87051H   23066.38489736 -.00000021  00000+0 -30882-4 0  9997,2 18120  74.0041 198.3626 0056743  33.5726 356.1448 12.57923242640385,12.57923242,0.0056743,LEO
18122,COSMOS 1860,1987,103.98,-1.0,UNK,65.01,Inactive,0,LEO,Kazakhstan,Russia/USSR,Unknown,Unknown,Unknown,1 18122U 87052A   23067.48103541 -.00000026  00000+0  54904-4 0  9994,2 18122  65.0085 252.0310 0062853 241.2238 118.2501 13.84850695807270,13.84850695,0.0062853,LEO
18123,DMSP 5D-2 F8 (USA 26),1987,101.48,-1.0,-,98.72,Inactive,0,LEO,USA,USA,Unknown,Unknown,Unknown,1 18123U 87053A   23067.11196307  .00000625  00000+0  32043-3 0  9991,2 18123  98.7250 254.7511 0012633   7.6483 352.4883 14.18975046847261,14.18975046,0.0012633,LEO
